SL-6 R/B(2)             
1 21121U 91012D   24153.58098135  .00000404  00000+0  00000+0 0  9990
2 21121  64.6556 231.2474 6416953 264.7566  24.4808  2.05796097250035
SL-12 R/B(2)            
1 21129U 91010F   24157.37150028  .00000080  00000+0  00000+0 0  9997
2 21129  13.6662 347.6048 0017705 201.0927  36.2477  1.00133591122247
RADUGA 27               
1 21132U 91014A   24157.61164351 -.00000367  00000+0  00000+0 0  9995
2 21132  14.0332 342.5162 0003379 126.6878 115.7771  1.00198818121871
MOLNIYA 3-40            
1 21196U 91022A   24157.51960793  .00001069  00000+0  00000+0 0  9996
2 21196  64.8317 253.7555 6530771 265.0683  23.2589  2.02997925244285
SL-6 R/B(2)             
1 21199U 91022D   24157.31608012  .00000418  00000+0  00000+0 0  9997
2 21199  64.4592 212.5816 6444330 262.0178  25.6422  2.05835757249322
SPACENET 4 (ASC 2)      
1 21227U 91028A   24157.04007741 -.00000225  00000+0  00000+0 0  9994
2 21227  13.1217  19.1016 0004031 334.1802 206.8693  0.99566641118985
SPACENET 4 R/B [PAM-D]  
1 21229U 91028C   24157.46830480 -.00000031  00000+0  00000+0 0  9991
2 21229  21.8657 131.1293 6877415 223.4843 348.5383  2.19704074265989
MOLNIYA 1-81            
1 21426U 91043A   24156.32449990  .00000085  00000+0  00000+0 0  9991
2 21426  63.5716 257.3095 6867772 263.2644  20.9320  2.00594641241561
SL-6 R/B(2)             
1 21429U 91043D   24149.67251478  .00000572  00000+0  00000+0 0  9997
2 21429  64.3112 333.7334 7098852 265.9757  17.5704  1.96669070236620
SL-12 R/B(2)            
1 21536U 91046D   24156.80892775  .00000053  00000+0  00000+0 0  9997
2 21536  13.4624 344.0077 0015300 217.4223 156.7098  1.00924507116310
TDRS 5                  
1 21639U 91054B   24157.47783119 -.00000310  00000+0  00000+0 0  9992
2 21639  14.1646 359.1980 0002523 239.3292 125.8398  1.00273652120276
IUS R/B(2)              
1 21641U 91054D   24156.73937396  .00000031  00000+0  00000+0 0  9990
2 21641  14.5678 339.1299 0033580 330.5472  33.4391  1.00234671 39926
COSMOS 2155             
1 21702U 91064A   24157.20646282  .00000043  00000+0  00000+0 0  9996
2 21702  13.7400 344.6818 0000813 158.8516 197.9095  1.00214843119890
SL-12 R/B(2)            
1 21703U 91064B   24157.40701132 -.00000294  00000+0  00000+0 0  9994
2 21703  13.9233 345.3386 0002891  80.3820 276.6661  0.99891927112731
MOLNIYA 3-41            
1 21706U 91065A   24156.76773612 -.00001421  00000+0  00000+0 0  9991
2 21706  63.8794  77.4353 7245345 251.2018  22.9996  2.04360798241545
SL-12 R/B(2)            
1 21762U 91074D   24157.47391517 -.00000179  00000+0  00000+0 0  9991
2 21762  13.9989 346.7103 0004012 151.4275 205.2015  0.99701086112273
INTELSAT 601 (IS-601)   
1 21765U 91075A   24157.61174198 -.00000015  00000+0  00000+0 0  9994
2 21765  12.6517  22.0959 0001914  57.6523 287.8685  0.99586292118986
COSMOS 2172             
1 21789U 91079A   24157.07252233  .00000041  00000+0  00000+0 0  9999
2 21789  13.8270 345.7919 0002982  62.3334 290.8306  1.00156681 39918
ATLAS 2 CENTAUR R/B     
1 21804U 91083B   24157.34876661  .00000127  00000+0  66083-2 0  9990
2 21804  16.6300 126.5893 7349289 254.2710  20.3572  1.91160528227036
RADUGA 28               
1 21821U 91087A   24157.50232667 -.00000351  00000+0  00000+0 0  9997
2 21821  13.9202 346.4902 0007669 147.3743  44.1581  1.00338811118882
IABS R/B                
1 21877U 92006C   24157.18162179 -.00000128  00000+0  00000+0 0  9996
2 21877   8.5247 326.8534 0644781  83.1043 284.1877  1.10786345 19656
METEOSAT-5 AKM          
1 21904U 91015E   24157.58161818 -.00000069  00000+0  00000+0 0  9993
2 21904  12.9169 343.2835 0155249 216.0742 142.8184  1.00120469108945
GORIZONT 25             
1 21922U 92017A   24157.61391841 -.00000330  00000+0  00000+0 0  9992
2 21922  14.0292 347.9675 0028212 100.3241 139.1568  0.99849138117534
SL-12 R/B(2)            
1 21925U 92017D   24157.07652537 -.00000298  00000+0  00000+0 0  9990
2 21925  13.6300 346.1016 0021807  59.0858 316.1871  1.01094259117814
TELECOM 2B              
1 21939U 92021A   24157.61867910 -.00000058  00000+0  00000+0 0  9997
2 21939  14.2734   9.1661 0020441  81.8267 287.5073  0.99509927110018
PALAPA B4               
1 21964U 92027A   24157.31784332  .00000077  00000+0  00000+0 0  9994
2 21964  12.4923  22.4768 0004214  53.1919 133.5235  0.99943739 39774
DELTA 2 R/B(2)          
1 21966U 92027C   24157.43108219  .00000025  00000+0  00000+0 0  9996
2 21966  22.0920 235.0624 6436056 159.0595 248.6509  2.05328283240538
INSAT-2A                
1 22027U 92041A   24156.89779199  .00000027  00000+0  00000+0 0  9993
2 22027  14.6542 357.5087 0005514 253.4818 337.2092  1.00203530116613
GORIZONT 26             
1 22041U 92043A   24157.27394919 -.00000224  00000+0  00000+0 0  9997
2 22041  14.2607 350.0763 0031830 250.2279 104.5253  0.99246805116109
OPTUS B1 R/B(STAR 63F)  
1 22089U 92054C   24157.31306173  .00000075  00000+0  53619-3 0  9992
2 22089  22.9988 118.5457 7234177 227.1591  43.8035  2.23735528256317
DELTA 2 R/B(2)          
1 22098U 92057C   24157.37008198 -.00000100  00000+0  00000+0 0  9999
2 22098  19.6076 130.9941 6775033 144.9338   1.3120  2.17553465252411
COSMOS 2209             
1 22112U 92059A   24157.59895962 -.00000039  00000+0  00000+0 0  9996
2 22112  14.0876 348.1536 0006278 326.8241  34.4017  1.00380779116186
SL-12 R/B(2)            
1 22115U 92059D   24157.27499346 -.00000136  00000+0  00000+0 0  9998
2 22115  14.2939 348.9513 0008410 318.6972  43.1753  0.99801618114880
HELLAS-SAT 1 (DFS 3)    
1 22175U 92066A   24156.84509707 -.00000161  00000+0  00000+0 0  9995
2 22175  13.8483  12.4464 0003819 107.5274  73.1322  0.99737088113143
DELTA 2 R/B(2)          
1 22177U 92066C   24157.57320819 -.00000104  00000+0  00000+0 0  9990
2 22177  19.6964 320.0671 6856232 186.2316 130.5965  2.18731828 33470
SL-6 R/B(2)             
1 22181U 92067D   24157.30079381  .00000828  00000+0  00000+0 0  9994
2 22181  64.1568 231.2903 6724440 261.3094  23.2477  2.00777679228550
SL-6 R/B(2)             
1 22192U 92069D   24157.33768720  .00000916  00000+0  00000+0 0  9991
2 22192  67.9213 149.0697 6726713  15.3236 118.8044  2.02811135229297
GALAXY 7 (G-7)          
1 22205U 92072A   24156.53755713  .00000011  00000+0  00000+0 0  9995
2 22205  14.2546   8.7594 0008490  53.8028 218.8937  0.99706896109478
EKRAN 20                
1 22210U 92074A   24157.58060812 -.00000054  00000+0  00000+0 0  9996
2 22210  14.1293 349.7534 0006273 158.6199  22.0374  1.00324621 39932
SL-12 R/B(2)            
1 22213U 92074D   24157.40875177 -.00000224  00000+0  00000+0 0  9997
2 22213  13.7514 348.3463 0024080 129.7012 234.3751  1.01141140118277
SL-6 R/B(2)             
1 22241U 92081D   24157.50162876  .00000115  00000+0  00000+0 0  9990
2 22241  68.7153  62.0670 6305090  38.0985 352.8597  2.03436770234235
GORIZONT 27             
1 22245U 92082A   24157.58040508  .00000088  00000+0  00000+0 0  9999
2 22245  14.1656 349.4902 0010922  25.9713 303.0472  1.00166878119683
HIMAWARI-3 AKM          
1 22266U 84080E   24157.38330603 -.00000325  00000+0  00000+0 0  9992
2 22266  10.8388 321.1999 0136851  95.3873 127.0964  0.99756948110087
COSMOS 2224             
1 22269U 92088A   24157.27586368 -.00000027  00000+0  00000+0 0  9990
2 22269  13.9513 353.3051 0004103 215.2517 147.0346  1.00244415114659
SL-12 R/B(2)            
1 22272U 92088D   24157.61974432 -.00000377  00000+0  00000+0 0  9993
2 22272  14.0375 353.7423 0012039 138.0599 103.9887  1.00060962 39860
TDRS 6                  
1 22314U 93003B   24157.48528182 -.00000304  00000+0  00000+0 0  9990
2 22314  14.1628   2.5014 0011074 147.9399 232.5880  1.00265705114979
IUS R/B(2)              
1 22316U 93003D   24157.27629880 -.00000020  00000+0  00000+0 0  9991
2 22316  12.3101 348.7934 0071102 109.0057 260.9485  1.00134848119762
COSMOS 2232             
1 22321U 93006A   24156.74912576  .00000723  00000+0  00000+0 0  9997
2 22321  67.2783 225.8142 5840235 139.2237 283.7552  2.00494504229691
RADUGA 29               
1 22557U 93013A   24157.59473524 -.00000131  00000+0  00000+0 0  9999
2 22557  14.2442 350.6429 0006975 144.4317  52.4307  1.00159647114246
ARSENE (AO-24)          
1 22654U 93031B   24157.43166876 -.00000101  00000+0  00000+0 0  9996
2 22654   4.0490  69.1384 2817621 285.1235 289.7262  1.42203643156870
TITAN 34D TRANSTAGE DEB 
1 22668U 88077D   24157.30298023  .00002033  00000+0  32973-2 0  9993
2 22668  27.1117  64.6081 7346080 351.3691   0.9842  2.15137438 39151
TITAN 34D TRANSTAGE DEB 
1 22669U 88077E   24156.94127254  .00000901  00000+0  20779-2 0  9993
2 22669  26.7054  89.2597 7373562 319.0999   4.5821  2.11183200 38395
HGS-4 (GALAXY 4)        
1 22694U 93039A   24157.57636707 -.00000103  00000+0  00000+0 0  9990
2 22694  14.6089   0.7594 0013799  45.2727 129.3377  1.00265762111569
HISPASAT 1B             
1 22723U 93048A   24156.98215931 -.00000293  00000+0  00000+0 0  9999
2 22723  13.1169  18.3428 0007304  27.2986 166.6699  0.99727432112430
INSAT-2B                
1 22724U 93048B   24157.34551924 -.00000145  00000+0  00000+0 0  9992
2 22724  14.2187   8.0975 0015664 190.4112 172.4217  0.99986713113169
IABS R/B                
1 22738U 93046C   24157.56987907 -.00000206  00000+0  00000+0 0  9991
2 22738  13.1461 342.5410 0088383 123.0251 237.7901  1.02140246 18753
SL-6 R/B(2)             
1 22744U 93051D   24154.54830866 -.00000884  00000+0  00000+0 0  9992
2 22744  68.7054 354.0602 6343098  95.7265 334.6776  2.05617151229926
UFO 2 (USA 95)          
1 22787U 93056A   24157.20959564  .00000119  00000+0  00000+0 0  9997
2 22787  11.6537   7.4383 0004414  60.6067 290.2267  1.00274775111109
ACTS                    
1 22796U 93058B   24157.61135538 -.00000119  00000+0  00000+0 0  9992
2 22796  14.5987   1.2146 0050845  66.2827 301.3965  1.00273695119471
TOS R/B                 
1 22797U 93058D   24157.60524310  .00001099  00000+0  12055-2 0  9995
2 22797  15.6630 337.3113 7386049 296.3218   7.5910  2.12188346232597
